NORAD_CAT_ID,OBJECT_NAME,OBJECT_TYPE,EPOCH,MEAN_MOTION,ECCENTRICITY,INCLINATION,RA_OF_ASC_NODE,ARG_OF_PERICENTER,MEAN_ANOMALY,BSTAR,MEAN_MOTION_DOT,MEAN_MOTION_DDOT,TLE_LINE0,TLE_LINE1,TLE_LINE2,SEMIMAJOR_AXIS,PERIOD,APOGEE,PERIGEE,DECAYED
53000.0,STARLINK-4194,PAYLOAD,2024-06-21 20:28:35,15.08844027,0.0001257,53.2175,23.6091,99.6478,260.4656,7.049e-06,-1.76e-06,0.0,0 STARLINK-4194,1 53000U 22076Q   24173.85319236 -.00000176  00000-0  70490-5 0  9999,2 53000  53.2175  23.6091 0001257  99.6478 260.4656 15.08844027108368,6917.868,95.437,540.603,538.864,0.0
53000.0,STARLINK-4194,PAYLOAD,2024-06-22 18:43:59,15.08839601,0.0001307,53.2177,19.4454,97.9248,262.1892,0.00010956,1.456e-05,0.0,0 STARLINK-4194,1 53000U 22076Q   24174.78055209  .00001456  00000-0  10956-3 0  9999,2 53000  53.2177  19.4454 0001307  97.9248 262.1892 15.08839601108978,6917.882,95.438,540.651,538.842,0.0
53000.0,STARLINK-4194,PAYLOAD,2024-06-23 13:48:37,15.08841222,0.0001258,53.218,15.8769,95.3984,264.7151,6.6956e-05,7.78e-06,0.0,0 STARLINK-4194,1 53000U 22076Q   24175.57543173  .00000778  00000-0  66956-4 0  9997,2 53000  53.2180  15.8769 0001258  95.3984 264.7151 15.08841222108625,6917.877,95.437,540.612,538.871,0.0
53000.0,STARLINK-4194,PAYLOAD,2024-06-23 20:10:09,15.0884041,0.0001207,53.2177,14.685,87.648,272.4651,5.3084e-05,5.57e-06,0.0,0 STARLINK-4194,1 53000U 22076Q   24175.84039230  .00000557  00000-0  53084-4 0  9994,2 53000  53.2177  14.6850 0001207  87.6480 272.4651 15.08840410109134,6917.879,95.438,540.579,538.909,0.0
53000.0,STARLINK-4194,PAYLOAD,2024-06-24 18:25:34,15.08835926,0.0001258,53.2179,10.523,95.5922,264.5213,2.019e-05,3.3e-07,0.0,0 STARLINK-4194,1 53000U 22076Q   24176.76775696  .00000033  00000-0  20190-4 0  9990,2 53000  53.2179  10.5230 0001258  95.5922 264.5213 15.08835926109275,6917.893,95.438,540.628,538.888,0.0
53000.0,STARLINK-4194,PAYLOAD,2024-06-25 21:27:07,15.08840834,0.0001346,53.2182,5.468,103.1344,256.9799,8.0426e-05,9.92e-06,0.0,0 STARLINK-4194,1 53000U 22076Q   24177.89383376  .00000992  00000-0  80426-4 0  9997,2 53000  53.2182   5.4680 0001346 103.1344 256.9799 15.08840834108977,6917.878,95.438,540.674,538.812,0.0
53000.0,STARLINK-4194,PAYLOAD,2024-06-27 05:14:48,15.08858265,0.0001312,53.2181,359.5206,73.0993,287.0143,0.0002206,3.226e-05,0.0,0 STARLINK-4194,1 53000U 22076Q   24179.21861396  .00003226  00000-0  22060-3 0  9990,2 53000  53.2181 359.5206 0001312  73.0993 287.0143 15.08858265109641,6917.825,95.436,540.597,538.782,0.0
53000.0,STARLINK-4194,PAYLOAD,2024-06-27 19:33:20,15.08820748,0.0001197,53.2179,356.8455,83.6415,276.4713,-0.00020464,-3.541e-05,0.0,0 STARLINK-4194,1 53000U 22076Q   24179.81481864 -.00003541  00000-0 -20464-3 0  9992,2 53000  53.2179 356.8455 0001197  83.6415 276.4713 15.08820748109731,6917.939,95.439,540.632,538.976,0.0
53000.0,STARLINK-4194,PAYLOAD,2024-06-28 05:05:38,15.08827621,0.0001207,53.2172,355.0627,84.9147,275.1982,-0.00014847,-2.649e-05,0.0,0 STARLINK-4194,1 53000U 22076Q   24180.21225481 -.00002649  00000-0 -14847-3 0  9995,2 53000  53.2172 355.0627 0001207  84.9147 275.1982 15.08827621109791,6917.918,95.438,540.618,538.948,0.0
53000.0,STARLINK-4194,PAYLOAD,2024-06-28 17:48:43,15.0881244,0.0001399,53.2169,352.6822,94.7383,265.3769,0.00080265,0.000125,0.0,0 STARLINK-4194,1 53000U 22076Q   24180.74217227  .00012500  00000-0  80265-3 0  9994,2 53000  53.2169 352.6822 0001399  94.7383 265.3769 15.08812440109405,6917.965,95.439,540.797,538.862,0.0
53000.0,STARLINK-4194,PAYLOAD,2024-06-29 04:56:25,15.08835581,0.0001196,53.2166,350.6006,105.4275,254.685,0.00088844,0.00013878,0.0,0 STARLINK-4194,1 53000U 22076Q   24181.20584567  .00013878  00000-0  88844-3 0  9990,2 53000  53.2166 350.6006 0001196 105.4275 254.6850 15.08835581109941,6917.894,95.438,540.586,538.932,0.0
53000.0,STARLINK-4194,PAYLOAD,2024-06-29 11:17:58,15.08819039,0.0001678,53.2152,349.4124,104.5804,255.5374,0.00056947,8.782e-05,0.0,0 STARLINK-4194,1 53000U 22076Q   24181.47081892  .00008782  00000-0  56947-3 0  9999,2 53000  53.2152 349.4124 0001678 104.5804 255.5374 15.08819039109981,6917.944,95.439,540.97,538.649,0.0
53000.0,STARLINK-4194,PAYLOAD,2024-06-29 17:39:31,15.08819847,0.0001401,53.2148,348.2224,112.1926,247.9215,0.0004582,7.008e-05,0.0,0 STARLINK-4194,1 53000U 22076Q   24181.73578137  .00007008  00000-0  45820-3 0  9999,2 53000  53.2148 348.2224 0001401 112.1926 247.9215 15.08819847109557,6917.942,95.439,540.776,538.838,0.0
53000.0,STARLINK-4194,PAYLOAD,2024-06-30 11:08:44,15.08849408,0.0001632,53.2172,344.9492,116.1418,243.9742,0.00012736,1.74e-05,0.0,0 STARLINK-4194,1 53000U 22076Q   24182.46440658  .00001740  00000-0  12736-3 0  9993,2 53000  53.2172 344.9492 0001632 116.1418 243.9742 15.08849408110133,6917.852,95.437,540.846,538.588,0.0
53000.0,STARLINK-4194,PAYLOAD,2024-06-30 14:19:30,15.08851314,0.0001631,53.2163,344.3559,109.0353,251.0816,0.00019696,2.849e-05,0.0,0 STARLINK-4194,1 53000U 22076Q   24182.59688620  .00002849  00000-0  19696-3 0  9993,2 53000  53.2163 344.3559 0001631 109.0353 251.0816 15.08851314109688,6917.846,95.437,540.839,538.583,0.0
53000.0,STARLINK-4194,PAYLOAD,2024-06-30 17:30:17,15.08858342,0.0001055,53.2155,343.7634,93.385,266.7263,0.00026345,3.91e-05,0.0,0 STARLINK-4194,1 53000U 22076Q   24182.72936445  .00003910  00000-0  26345-3 0  9998,2 53000  53.2155 343.7634 0001055  93.3850 266.7263 15.08858342109703,6917.824,95.436,540.419,538.959,0.0
53000.0,STARLINK-4194,PAYLOAD,2024-07-01 14:10:18,15.08836463,0.0001235,53.2174,339.8977,110.9785,249.134,-1.7535e-05,-5.67e-06,0.0,0 STARLINK-4194,1 53000U 22076Q   24183.59048762 -.00000567  00000-0 -17535-4 0  9999,2 53000  53.2174 339.8977 0001235 110.9785 249.1340 15.08836463109838,6917.891,95.438,540.611,538.902,0.0
53000.0,STARLINK-4194,PAYLOAD,2024-07-01 17:21:04,15.088429,0.0001159,53.217,339.3045,107.6725,252.4393,1.7089e-05,-1.6e-07,0.0,0 STARLINK-4194,1 53000U 22076Q   24183.72296490 -.00000016  00000-0  17089-4 0  9999,2 53000  53.2170 339.3045 0001159 107.6725 252.4393 15.08842900110321,6917.872,95.437,540.538,538.935,0.0
53000.0,STARLINK-4194,PAYLOAD,2024-07-02 14:01:05,15.08830761,0.0001095,53.2171,335.4362,83.0331,277.0786,-0.00010052,-1.887e-05,0.0,0 STARLINK-4194,1 53000U 22076Q   24184.58408789 -.00001887  00000-0 -10052-3 0  9990,2 53000  53.2171 335.4362 0001095  83.0331 277.0786 15.08830761109981,6917.909,95.438,540.531,539.016,0.0
53000.0,STARLINK-4194,PAYLOAD,2024-07-02 17:11:51,15.0883976,0.0001219,53.2175,334.8443,102.053,258.0598,0.00024456,3.606e-05,0.0,0 STARLINK-4194,1 53000U 22076Q   24184.71656661  .00003606  00000-0  24456-3 0  9991,2 53000  53.2175 334.8443 0001219 102.0530 258.0598 15.08839760110002,6917.881,95.438,540.589,538.903,0.0
53000.0,STARLINK-4194,PAYLOAD,2024-07-03 02:44:10,15.08854811,0.000117,53.2177,333.0594,102.8552,257.2571,0.0010745,0.00016861,0.0,0 STARLINK-4194,1 53000U 22076Q   24185.11400477  .00016861  00000-0  10745-2 0  9990,2 53000  53.2177 333.0594 0001170 102.8552 257.2571 15.08854811110534,6917.835,95.437,540.51,538.891,0.0
53000.0,STARLINK-4194,PAYLOAD,2024-07-03 17:02:38,15.08846413,0.0001144,53.2169,330.3831,97.9885,262.1237,0.00068375,0.00010613,0.0,0 STARLINK-4194,1 53000U 22076Q   24185.71016713  .00010613  00000-0  68375-3 0  9994,2 53000  53.2169 330.3831 0001144  97.9885 262.1237 15.08846413110626,6917.861,95.437,540.517,538.934,0.0
53000.0,STARLINK-4194,PAYLOAD,2024-07-04 13:42:39,15.08839623,0.0001256,53.2161,326.5157,95.4287,264.6849,0.0011473,0.00018018,0.0,0 STARLINK-4194,1 53000U 22076Q   24186.57128989  .00018018  00000-0  11473-2 0  9991,2 53000  53.2161 326.5157 0001256  95.4287 264.6849 15.08839623110754,6917.882,95.438,540.615,538.878,0.0
53000.0,STARLINK-4194,PAYLOAD,2024-07-04 15:18:02,15.08839245,0.0001074,53.2164,326.2187,97.6304,262.481,0.0013866,0.00021848,0.0,0 STARLINK-4194,1 53000U 22076Q   24186.63752981  .00021848  00000-0  13866-2 0  9996,2 53000  53.2164 326.2187 0001074  97.6304 262.4810 15.08839245110292,6917.883,95.438,540.491,539.005,0.0
53000.0,STARLINK-4194,PAYLOAD,2024-07-05 08:47:17,15.08843586,0.0001487,53.2167,322.9484,89.1812,270.935,0.00083405,0.00013012,0.0,0 STARLINK-4194,1 53000U 22076Q   24187.36616947  .00013012  00000-0  83405-3 0  9999,2 53000  53.2167 322.9484 0001487  89.1812 270.9350 15.08843586110876,6917.869,95.437,540.763,538.706,0.0
53000.0,STARLINK-4194,PAYLOAD,2024-07-05 15:08:49,15.08842171,9.2e-05,53.2168,321.7597,83.5071,276.6026,0.0011631,0.00018272,0.0,0 STARLINK-4194,1 53000U 22076Q   24187.63112845  .00018272  00000-0  11631-2 0  9991,2 53000  53.2168 321.7597 0000920  83.5071 276.6026 15.08842171110440,6917.874,95.437,540.375,539.102,0.0
53000.0,STARLINK-4194,PAYLOAD,2024-07-06 08:38:04,15.08844026,0.0002589,53.2176,318.4884,80.7986,279.3299,0.00079747,0.00012428,0.0,0 STARLINK-4194,1 53000U 22076Q   24188.35977166  .00012428  00000-0  79747-3 0  9996,2 53000  53.2176 318.4884 0002589  80.7986 279.3299 15.08844026111026,6917.868,95.437,541.524,537.942,0.0
53000.0,STARLINK-4194,PAYLOAD,2024-07-06 14:59:37,15.08821693,0.000141,53.2176,317.2983,82.8777,277.2375,0.00094739,0.00014814,0.0,0 STARLINK-4194,1 53000U 22076Q   24188.62473394  .00014814  00000-0  94739-3 0  9999,2 53000  53.2176 317.2983 0001410  82.8777 277.2375 15.08821693110594,6917.936,95.439,540.777,538.826,0.0
53000.0,STARLINK-4194,PAYLOAD,2024-07-06 18:10:23,15.08814501,0.0001093,53.2177,316.7092,25.8218,334.2828,0.00071098,0.00011038,0.0,0 STARLINK-4194,1 53000U 22076Q   24188.75721803  .00011038  00000-0  71098-3 0  9992,2 53000  53.2177 316.7092 0001093  25.8218 334.2828 15.08814501111086,6917.958,95.439,540.579,539.067,0.0
53000.0,STARLINK-4194,PAYLOAD,2024-07-07 02:07:20,15.08805642,0.0001209,53.2156,315.2218,26.813,333.2924,0.00044391,6.777e-05,0.0,0 STARLINK-4194,1 53000U 22076Q   24189.08842665  .00006777  00000-0  44391-3 0  9999,2 53000  53.2156 315.2218 0001209  26.8130 333.2924 15.08805642111138,6917.985,95.44,540.687,539.014,0.0
